STARLINK-11535 [DTC]    
1 62595U 25008J   26169.88270807  .00143331  00000+0  10985-2 0  9995
2 62595  42.9987 235.8153 0000964 344.2690  15.8147 15.70902871 83054
STARLINK-11521 [DTC]    
1 62597U 25008L   26169.89862743  .00124711  00000+0  95858-3 0  9998
2 62597  42.9997 235.9413 0002494 270.4406  89.6175 15.70895465 83209
STARLINK-11258 [DTC]    
1 62598U 25008M   26169.90394222  .00147594  00000+0  11301-2 0  9997
2 62598  42.9994 235.9842 0001373 297.2827  62.7901 15.70909472 83205
STARLINK-11529 [DTC]    
1 62599U 25008N   26169.90924600  .00119637  00000+0  92109-3 0  9990
2 62599  42.9998 236.0261 0002100 267.8867  92.1761 15.70875455 83218
STARLINK-32747          
1 62600U 25008P   26169.99320435  .00023201  00000+0  84975-3 0  9991
2 62600  43.0003  66.1463 0001848 264.7590  95.3051 15.27588631 81059
STARLINK-32767          
1 62601U 25008Q   26169.43412449  .00013926  00000+0  51503-3 0  9992
2 62601  43.0022  68.8244 0001902 257.2143 102.8496 15.27553999 81033
STARLINK-32769          
1 62602U 25008R   26169.43799187  .00015395  00000+0  56793-3 0  9998
2 62602  43.0029  68.8493 0000374 324.5811  35.5016 15.27572972 81031
STARLINK-32778          
1 62603U 25008S   26169.41629034  .00009694  00000+0  36134-3 0  9992
2 62603  42.9992  69.5582 0001243 268.5456  91.5253 15.27578971 80965
STARLINK-32710          
1 62604U 25008T   26169.42000063  .00017800  00000+0  65474-3 0  9996
2 62604  43.0001  68.7160 0000562 291.2247  68.8544 15.27582897 80979
STARLINK-32742          
1 62605U 25008U   26169.09693289  .00021639  00000+0  79366-3 0  9998
2 62605  43.0038  70.5905 0001268 296.3247  63.7475 15.27576744 80979
STARLINK-32783          
1 62606U 25008V   26169.18029341  .00013221  00000+0  48903-3 0  9992
2 62606  43.0048  70.3570 0001466 276.1580  83.9104 15.27586202 80932
STARLINK-32784          
1 62607U 25008W   26169.91668981  .00081022  00000+0  14210-2 0  9990
2 62607  42.9919  54.0304 0022433 231.7858 216.3298 15.49324341  5801
BUZZER-1                
1 62609U 25009A   26169.76166555  .00002351  00000+0  10709-3 0  9994
2 62609  97.3923 247.9810 0006932 341.1295  18.9683 15.21645441 78939
EDISON-1                
1 62610U 25009B   26169.95258425  .00009837  00000+0  32437-3 0  9993
2 62610  97.4002 252.4629 0003974 307.2865  52.8013 15.31640780 79227
BALKAN-1                
1 62611U 25009C   26169.72003346  .00005154  00000+0  20909-3 0  9998
2 62611  97.3916 248.9360 0005885 342.5532  17.5503 15.25039964 78993
GESAT GEN1              
1 62612U 25009D   26169.72326584  .00006830  00000+0  24802-3 0  9999
2 62612  97.4017 251.7594 0001084  92.7249 267.4115 15.28622603 79159
FLOCK 4G-8              
1 62613U 25009E   26169.78581677  .00007391  00000+0  25897-3 0  9990
2 62613  97.4005 251.7836 0002761 319.9762  40.1275 15.29764607 79169
TRANSPORTER-12 OBJECT G 
1 62615U 25009G   26169.52441814  .00005088  00000+0  20190-3 0  9994
2 62615  97.3945 249.4742 0005143 336.0954  24.0045 15.25795878 79002
INNOCUBE (TUBSAT-31)    
1 62616U 25009H   26169.79115948  .00005374  00000+0  20849-3 0  9999
2 62616  97.3902 249.7662 0004955 340.3871  19.7176 15.26522272 79065
SCOT-1 (SCOT)           
1 62617U 25009J   26169.75367820  .00054614  00000+0  83161-3 0  9991
2 62617  97.3860 257.6521 0003177 257.9354 102.1544 15.54333809 79596
AE1D                    
1 62618U 25009K   26169.77155269  .00078854  00000+0  90839-3 0  9998
2 62618  97.3945 259.6819 0003347 262.6340  97.4538 15.61708828 79695
IRIS-F3                 
1 62619U 25009L   26169.75904278  .00004935  00000+0  18867-3 0  9999
2 62619  97.4044 250.5873 0005280 328.7072  31.3852 15.27055475 79063
TRANSPORTER-12 OBJECT M 
1 62620U 25009M   26169.71454817  .00084382  00000+0  95481-3 0  9997
2 62620  97.3913 259.7581 0004313 244.9092 115.1719 15.62150140 79699
FLOCK 4G-13             
1 62621U 25009N   26169.77134908  .00056220  00000+0  11897-2 0  9998
2 62621  97.3960 253.0627 0003692 266.3434  93.7393 15.44938214 79243
FLOCK 4G-9              
1 62622U 25009P   26169.90997018  .00007206  00000+0  26584-3 0  9993
2 62622  97.3960 250.8464 0003456 333.0194  27.0866 15.28080373 79129
OTTER                   
1 62623U 25009Q   26169.77537623  .00007567  00000+0  26408-3 0  9996
2 62623  97.4028 251.9227 0003303 314.6526  45.4444 15.29885031 79165
FLOCK 4G-7              
1 62624U 25009R   26169.89375933  .00008778  00000+0  31086-3 0  9997
2 62624  97.3944 251.2010 0001338 340.8329  19.2861 15.29361119 79161
FLOCK 4G-12             
1 62625U 25009S   26169.95286666  .00008422  00000+0  29955-3 0  9997
2 62625  97.4020 251.7855 0002712 314.2239  45.8778 15.29229907 79173
MBZ-SAT                 
1 62626U 25009T   26169.75165104  .00000117  00000+0  90074-5 0  9994
2 62626  97.3976 247.9946 0003742 355.7936   4.3266 15.17972743 78923
RAY 1.0                 
1 62627U 25009U   26169.92915088  .00002362  00000+0  11040-3 0  9996
2 62627  97.3988 248.2239 0007109 269.1054  90.9367 15.20742882 78944
