OBJECT_NAME,OBJECT_ID,EPOCH,MEAN_MOTION,ECCENTRICITY,INCLINATION,RA_OF_ASC_NODE,ARG_OF_PERICENTER,MEAN_ANOMALY,EPHEMERIS_TYPE,CLASSIFICATION_TYPE,NORAD_CAT_ID,ELEMENT_SET_NO,REV_AT_EPOCH,BSTAR,MEAN_MOTION_DOT,MEAN_MOTION_DDOT
STARLINK-11535 [DTC],2025-008J,2026-06-18T21:11:05.977248,15.70902871,.00009646,42.9987,235.8153,344.2690,15.8147,0,U,62595,999,8305,.10984586E-2,.143331E-2,0
STARLINK-11521 [DTC],2025-008L,2026-06-18T21:34:01.409952,15.70895465,.00024948,42.9997,235.9413,270.4406,89.6175,0,U,62597,999,8320,.95858313E-3,.124711E-2,0
STARLINK-11258 [DTC],2025-008M,2026-06-18T21:41:40.607808,15.70909472,.00013735,42.9994,235.9842,297.2827,62.7901,0,U,62598,999,8320,.11301268E-2,.147594E-2,0
STARLINK-11529 [DTC],2025-008N,2026-06-18T21:49:18.854400,15.70875455,.00021,42.9998,236.0261,267.8867,92.1761,0,U,62599,999,8321,.92108623E-3,.119637E-2,0
STARLINK-32747,2025-008P,2026-06-18T23:50:12.855840,15.27588631,.0001848,43.0003,66.1463,264.7590,95.3051,0,U,62600,999,8105,.849748E-3,.23201E-3,0
STARLINK-32767,2025-008Q,2026-06-18T10:25:08.355936,15.27553999,.0001902,43.0022,68.8244,257.2143,102.8496,0,U,62601,999,8103,.51503E-3,.13926E-3,0
STARLINK-32769,2025-008R,2026-06-18T10:30:42.497568,15.27572972,.0000374,43.0029,68.8493,324.5811,35.5016,0,U,62602,999,8103,.56793E-3,.15395E-3,0
STARLINK-32778,2025-008S,2026-06-18T09:59:27.485376,15.27578971,.0001243,42.9992,69.5582,268.5456,91.5253,0,U,62603,999,8096,.36134E-3,.9694E-4,0
STARLINK-32710,2025-008T,2026-06-18T10:04:48.054432,15.27582897,.0000562,43.0001,68.7160,291.2247,68.8544,0,U,62604,999,8097,.65474E-3,.178E-3,0
STARLINK-32742,2025-008U,2026-06-18T02:19:35.001696,15.27576744,.00012687,43.0038,70.5905,296.3247,63.7475,0,U,62605,999,8097,.79365653E-3,.21639E-3,0
STARLINK-32783,2025-008V,2026-06-18T04:19:37.350624,15.27586202,.00014664,43.0048,70.3570,276.1580,83.9104,0,U,62606,999,8093,.48902689E-3,.13221E-3,0
STARLINK-32784,2025-008W,2026-06-18T22:00:01.999584,15.49324341,.00224334,42.9919,54.0304,231.7858,216.3298,0,U,62607,999,580,.14210062E-2,.81022E-3,0
BUZZER-1,2025-009A,2026-06-18T18:16:47.903520,15.21645441,.00069323,97.3923,247.9810,341.1295,18.9683,0,U,62609,999,7893,.10708846E-3,.2351E-4,0
EDISON-1,2025-009B,2026-06-18T22:51:43.279200,15.31640780,.00039747,97.4002,252.4629,307.2865,52.8013,0,U,62610,999,7922,.32437293E-3,.9837E-4,0
BALKAN-1,2025-009C,2026-06-18T17:16:50.890944,15.25039964,.00058857,97.3916,248.9360,342.5532,17.5503,0,U,62611,999,7899,.20908535E-3,.5154E-4,0
GESAT GEN1,2025-009D,2026-06-18T17:21:30.168576,15.28622603,.00010847,97.4017,251.7594,92.7249,267.4115,0,U,62612,999,7915,.24801824E-3,.683E-4,0
FLOCK 4G-8,2025-009E,2026-06-18T18:51:34.568928,15.29764607,.00027615,97.4005,251.7836,319.9762,40.1275,0,U,62613,999,7916,.25896789E-3,.7391E-4,0
TRANSPORTER-12 OBJECT G,2025-009G,2026-06-18T12:35:09.727296,15.25795878,.0005143,97.3945,249.4742,336.0954,24.0045,0,U,62615,999,7900,.2019E-3,.5088E-4,0
INNOCUBE (TUBSAT-31),2025-009H,2026-06-18T18:59:16.179072,15.26522272,.00049553,97.3902,249.7662,340.3871,19.7176,0,U,62616,999,7906,.20849356E-3,.5374E-4,0
SCOT-1 (SCOT),2025-009J,2026-06-18T18:05:17.796480,15.54333809,.00031771,97.3860,257.6521,257.9354,102.1544,0,U,62617,999,7959,.83161303E-3,.54614E-3,0
AE1D,2025-009K,2026-06-18T18:31:02.152416,15.61708828,.00033476,97.3945,259.6819,262.6340,97.4538,0,U,62618,999,7969,.90839344E-3,.78854E-3,0
IRIS-F3,2025-009L,2026-06-18T18:13:01.296192,15.27055475,.000528,97.4044,250.5873,328.7072,31.3852,0,U,62619,999,7906,.18866688E-3,.4935E-4,0
TRANSPORTER-12 OBJECT M,2025-009M,2026-06-18T17:08:56.961888,15.62150140,.00043137,97.3913,259.7581,244.9092,115.1719,0,U,62620,999,7969,.95481309E-3,.84382E-3,0
FLOCK 4G-13,2025-009N,2026-06-18T18:30:44.560512,15.44938214,.00036925,97.3960,253.0627,266.3434,93.7393,0,U,62621,999,7924,.11896601E-2,.5622E-3,0
FLOCK 4G-9,2025-009P,2026-06-18T21:50:21.423552,15.28080373,.00034564,97.3960,250.8464,333.0194,27.0866,0,U,62622,999,7912,.2658393E-3,.7206E-4,0
OTTER,2025-009Q,2026-06-18T18:36:32.506272,15.29885031,.00033037,97.4028,251.9227,314.6526,45.4444,0,U,62623,999,7916,.26407948E-3,.7567E-4,0
FLOCK 4G-7,2025-009R,2026-06-18T21:27:00.806112,15.29361119,.00013387,97.3944,251.2010,340.8329,19.2861,0,U,62624,999,7916,.31086142E-3,.8778E-4,0
FLOCK 4G-12,2025-009S,2026-06-18T22:52:07.679424,15.29229907,.00027128,97.4020,251.7855,314.2239,45.8778,0,U,62625,999,7917,.29955149E-3,.8422E-4,0
MBZ-SAT,2025-009T,2026-06-18T18:02:22.649856,15.17972743,.00037422,97.3976,247.9946,355.7936,4.3266,0,U,62626,999,7892,.9007441E-5,.117E-5,0
RAY 1.0,2025-009U,2026-06-18T22:17:58.636032,15.20742882,.00071099,97.3988,248.2239,269.1054,90.9367,0,U,62627,999,7894,.11040377E-3,.2362E-4,0
